NORAD_CAT_ID,OBJECT_NAME,OBJECT_TYPE,EPOCH,MEAN_MOTION,ECCENTRICITY,INCLINATION,RA_OF_ASC_NODE,ARG_OF_PERICENTER,MEAN_ANOMALY,BSTAR,MEAN_MOTION_DOT,MEAN_MOTION_DDOT,TLE_LINE0,TLE_LINE1,TLE_LINE2,SEMIMAJOR_AXIS,PERIOD,APOGEE,PERIGEE,DECAYED
54207.0,STARLINK-5262,PAYLOAD,2023-03-08 18:08:02,15.08840789,0.0002077,53.2172,238.0473,88.8822,271.2409,-4.9883e-06,-3.68e-06,0.0,0 STARLINK-5262,1 54207U 22141BC  23067.75558994 -.00000368  00000-0 -49883-5 0  9994,2 54207  53.2172 238.0473 0002077  88.8822 271.2409 15.08840789 20400,6917.878,95.438,541.18,538.306,0.0
54207.0,STARLINK-5262,PAYLOAD,2023-03-09 17:58:49,15.08854717,0.0002399,53.2204,233.5882,88.1188,272.0079,9.2792e-05,1.189e-05,0.0,0 STARLINK-5262,1 54207U 22141BC  23068.74917926  .00001189  00000-0  92792-4 0  9994,2 54207  53.2204 233.5882 0002399  88.1188 272.0079 15.08854717 20784,6917.835,95.437,541.36,538.041,0.0
54207.0,STARLINK-5262,PAYLOAD,2023-03-10 09:52:42,15.08828513,0.0001089,53.2129,230.614,58.6539,301.456,2.412e-05,9.6e-07,0.0,0 STARLINK-5262,1 54207U 22141BC  23069.41159920  .00000096  00000-0  24120-4 0  9997,2 54207  53.2129 230.6140 0001089  58.6539 301.4560 15.08828513 20880,6917.916,95.438,540.534,539.027,0.0
54207.0,STARLINK-5262,PAYLOAD,2023-03-10 17:49:37,15.08831192,0.0001209,53.2139,229.1269,64.8047,295.307,4.3977e-06,-2.18e-06,0.0,0 STARLINK-5262,1 54207U 22141BC  23069.74280003 -.00000218  00000-0  43977-5 0  9999,2 54207  53.2139 229.1269 0001209  64.8047 295.3070 15.08831192 20708,6917.907,95.438,540.609,538.936,0.0
54207.0,STARLINK-5262,PAYLOAD,2023-03-11 12:54:15,15.08835395,0.0001411,53.2175,225.5599,88.7592,271.3562,-2.8459e-05,-7.41e-06,0.0,0 STARLINK-5262,1 54207U 22141BC  23070.53768245 -.00000741  00000-0 -28459-4 0  9996,2 54207  53.2175 225.5599 0001411  88.7592 271.3562 15.08835395 20821,6917.894,95.438,540.736,538.783,0.0
54207.0,STARLINK-5262,PAYLOAD,2023-03-11 14:29:38,15.08837046,0.0001357,53.2193,225.2638,91.5683,268.5465,3.0369e-06,-2.4e-06,0.0,0 STARLINK-5262,1 54207U 22141BC  23070.60392045 -.00000240  00000-0  30369-5 0  9992,2 54207  53.2193 225.2638 0001357  91.5683 268.5465 15.08837046 21066,6917.889,95.438,540.693,538.816,0.0
54207.0,STARLINK-5262,PAYLOAD,2023-03-11 19:15:46,15.08855038,0.0001105,53.2195,224.3699,98.8922,261.2195,2.9412e-05,1.8e-06,0.0,0 STARLINK-5262,1 54207U 22141BC  23070.80262645  .00000180  00000-0  29412-4 0  9994,2 54207  53.2195 224.3699 0001105  98.8922 261.2195 15.08855038 20860,6917.834,95.437,540.464,538.935,0.0
54207.0,STARLINK-5262,PAYLOAD,2023-03-12 09:34:16,15.08828549,0.0001505,53.2189,221.6959,80.1526,279.9636,2.0096e-05,3.2e-07,0.0,0 STARLINK-5262,1 54207U 22141BC  23071.39880774  .00000032  00000-0  20096-4 0  9993,2 54207  53.2189 221.6959 0001505  80.1526 279.9636 15.08828549 21189,6917.915,95.438,540.822,538.739,0.0
54207.0,STARLINK-5262,PAYLOAD,2023-03-12 12:45:03,15.08829486,0.0001173,53.2186,221.1008,103.9939,256.1184,1.9314e-05,2e-07,0.0,0 STARLINK-5262,1 54207U 22141BC  23071.53128610  .00000020  00000-0  19314-4 0  9991,2 54207  53.2186 221.1008 0001173 103.9939 256.1184 15.08829486 20971,6917.913,95.438,540.589,538.966,0.0
54207.0,STARLINK-5262,PAYLOAD,2023-03-12 22:17:21,15.08841726,0.0001421,53.2161,219.313,105.2873,254.8277,0.00010435,1.373e-05,0.0,0 STARLINK-5262,1 54207U 22141BC  23071.92871607  .00001373  00000-0  10435-3 0  9991,2 54207  53.2161 219.3130 0001421 105.2873 254.8277 15.08841726 21269,6917.875,95.437,540.723,538.757,0.0
54207.0,STARLINK-5262,PAYLOAD,2023-03-13 09:25:04,15.08827391,8.63e-05,53.2194,217.2361,64.6852,295.423,-5.7509e-05,-1.202e-05,0.0,0 STARLINK-5262,1 54207U 22141BC  23072.39241202 -.00001202  00000-0 -57509-4 0  9992,2 54207  53.2194 217.2361 0000863  64.6852 295.4230 15.08827391 21332,6917.919,95.438,540.381,539.187,0.0
54207.0,STARLINK-5262,PAYLOAD,2023-03-14 12:26:36,15.08842497,0.0002021,53.219,212.1777,124.1937,235.9247,9.8379e-06,-1.32e-06,0.0,0 STARLINK-5262,1 54207U 22141BC  23073.51847745 -.00000132  00000-0  98379-5 0  9992,2 54207  53.2190 212.1777 0002021 124.1937 235.9247 15.08842497 21507,6917.873,95.437,541.136,538.34,0.0
54207.0,STARLINK-5262,PAYLOAD,2023-03-14 15:37:22,15.08851796,0.0001145,53.2186,211.5808,105.3909,254.721,1.6982e-05,-1.7e-07,0.0,0 STARLINK-5262,1 54207U 22141BC  23073.65095231 -.00000017  00000-0  16982-4 0  9993,2 54207  53.2186 211.5808 0001145 105.3909 254.7210 15.08851796 21529,6917.844,95.437,540.501,538.917,0.0
54207.0,STARLINK-5262,PAYLOAD,2023-03-15 12:17:22,15.0885053,0.000135,53.2193,207.7214,79.8727,280.2417,1.4841e-05,-5.2e-07,0.0,0 STARLINK-5262,1 54207U 22141BC  23074.51207056 -.00000052  00000-0  14841-4 0  9990,2 54207  53.2193 207.7214 0001350  79.8727 280.2417 15.08850530 21423,6917.848,95.437,540.647,538.779,0.0
54207.0,STARLINK-5262,PAYLOAD,2023-03-16 18:29:44,15.08829293,6.73e-05,53.2215,202.0699,111.7002,248.4062,-0.00011084,-2.051e-05,0.0,0 STARLINK-5262,1 54207U 22141BC  23075.77065145 -.00002051  00000-0 -11084-3 0  9997,2 54207  53.2215 202.0699 0000673 111.7002 248.4062 15.08829293 21842,6917.913,95.438,540.244,539.313,0.0
54207.0,STARLINK-5262,PAYLOAD,2023-03-17 00:51:16,15.08833696,7.68e-05,53.2191,200.8816,69.7475,290.3599,-3.9754e-05,-9.2e-06,0.0,0 STARLINK-5262,1 54207U 22141BC  23076.03560784 -.00000920  00000-0 -39754-4 0  9994,2 54207  53.2191 200.8816 0000768  69.7475 290.3599 15.08833696 21880,6917.9,95.438,540.296,539.233,0.0
54207.0,STARLINK-5262,PAYLOAD,2023-03-17 10:23:35,15.0883714,0.0001087,53.2173,199.0968,65.231,294.8795,-5.1282e-05,-1.104e-05,0.0,0 STARLINK-5262,1 54207U 22141BC  23076.43304800 -.00001104  00000-0 -51282-4 0  9998,2 54207  53.2173 199.0968 0001087  65.2310 294.8795 15.08837140 21718,6917.889,95.438,540.506,539.002,0.0
54207.0,STARLINK-5262,PAYLOAD,2023-03-17 18:20:30,15.08846471,0.0001161,53.2184,197.6104,84.9184,275.194,2.4038e-05,9.5e-07,0.0,0 STARLINK-5262,1 54207U 22141BC  23076.76423914  .00000095  00000-0  24038-4 0  9997,2 54207  53.2184 197.6104 0001161  84.9184 275.1940 15.08846471 21997,6917.861,95.437,540.529,538.922,0.0
54207.0,STARLINK-5262,PAYLOAD,2023-03-18 00:42:03,15.08829904,4.27e-05,53.2201,196.4171,75.3097,284.7943,4.6522e-05,4.53e-06,0.0,0 STARLINK-5262,1 54207U 22141BC  23077.02921133  .00000453  00000-0  46522-4 0  9993,2 54207  53.2201 196.4171 0000427  75.3097 284.7943 15.08829904 22036,6917.911,95.438,540.072,539.481,0.0
54207.0,STARLINK-5262,PAYLOAD,2023-03-18 18:11:17,15.08843702,4.15e-05,53.2178,193.1478,60.3107,299.7927,0.00018632,2.679e-05,0.0,0 STARLINK-5262,1 54207U 22141BC  23077.75784085  .00002679  00000-0  18632-3 0  9998,2 54207  53.2178 193.1478 0000415  60.3107 299.7927 15.08843702 22148,6917.869,95.437,540.021,539.447,0.0
54207.0,STARLINK-5262,PAYLOAD,2023-03-19 00:32:50,15.08840542,8.36e-05,53.2177,191.9594,58.2846,301.8228,6.1656e-05,6.94e-06,0.0,0 STARLINK-5262,1 54207U 22141BC  23078.02280842  .00000694  00000-0  61656-4 0  9991,2 54207  53.2177 191.9594 0000836  58.2846 301.8228 15.08840542 22187,6917.879,95.438,540.322,539.165,0.0
54207.0,STARLINK-5262,PAYLOAD,2023-03-19 13:15:55,15.08848908,0.0001036,53.2196,189.5826,80.1116,279.9993,2.1634e-05,5.7e-07,0.0,0 STARLINK-5262,1 54207U 22141BC  23078.55272548  .00000057  00000-0  21634-4 0  9998,2 54207  53.2196 189.5826 0001036  80.1116 279.9993 15.08848908 22038,6917.853,95.437,540.435,539.001,0.0
54207.0,STARLINK-5262,PAYLOAD,2023-03-19 14:51:18,15.08851397,0.0001013,53.2191,189.2843,75.0163,285.0941,4.2268e-05,3.85e-06,0.0,0 STARLINK-5262,1 54207U 22141BC  23078.61896265  .00000385  00000-0  42268-4 0  9993,2 54207  53.2191 189.2843 0001013  75.0163 285.0941 15.08851397 22272,6917.846,95.437,540.411,539.01,0.0
54207.0,STARLINK-5262,PAYLOAD,2023-03-20 13:06:42,15.08846447,8.11e-05,53.22,185.1218,80.7644,279.344,-1.5097e-05,-5.28e-06,0.0,0 STARLINK-5262,1 54207U 22141BC  23079.54632399 -.00000528  00000-0 -15097-4 0  9993,2 54207  53.2200 185.1218 0000811  80.7644 279.3440 15.08846447 22412,6917.861,95.437,540.287,539.165,0.0
54207.0,STARLINK-5262,PAYLOAD,2023-03-20 14:42:05,15.08847067,8.79e-05,53.2192,184.824,83.063,277.0462,1.9684e-05,2.6e-07,0.0,0 STARLINK-5262,1 54207U 22141BC  23079.61256199  .00000026  00000-0  19684-4 0  9998,2 54207  53.2192 184.8240 0000879  83.0630 277.0462 15.08847067 22191,6917.859,95.437,540.332,539.116,0.0
54207.0,STARLINK-5262,PAYLOAD,2023-03-21 00:14:24,15.08834378,2.86e-05,53.2194,183.0394,283.3498,76.7463,-0.00020756,-3.589e-05,0.0,0 STARLINK-5262,1 54207U 22141BC  23080.01000980 -.00003589  00000-0 -20756-3 0  9999,2 54207  53.2194 183.0394 0000286 283.3498  76.7463 15.08834378 22481,6917.898,95.438,539.96,539.565,0.0
54207.0,STARLINK-5262,PAYLOAD,2023-03-21 12:57:29,15.08845276,0.000137,53.2196,180.6616,65.7126,294.4009,-6.2589e-05,-1.284e-05,0.0,0 STARLINK-5262,1 54207U 22141BC  23080.53992519 -.00001284  00000-0 -62589-4 0  9995,2 54207  53.2196 180.6616 0001370  65.7126 294.4009 15.08845276 22561,6917.864,95.437,540.677,538.782,0.0
54207.0,STARLINK-5262,PAYLOAD,2023-03-22 12:48:16,15.0884125,0.0001125,53.2187,176.198,103.0609,257.0509,-0.00012876,-2.336e-05,0.0,0 STARLINK-5262,1 54207U 22141BC  23081.53352886 -.00002336  00000-0 -12876-3 0  9995,2 54207  53.2187 176.1980 0001125 103.0609 257.0509 15.08841250 22710,6917.877,95.437,540.52,538.963,0.0
54207.0,STARLINK-5262,PAYLOAD,2023-03-23 11:03:39,15.08846023,0.0001388,53.2191,172.0373,94.4687,265.6464,8.1195e-05,1.005e-05,0.0,0 STARLINK-5262,1 54207U 22141BC  23082.46087849  .00001005  00000-0  81195-4 0  9993,2 54207  53.2191 172.0373 0001388  94.4687 265.6464 15.08846023 22859,6917.862,95.437,540.687,538.767,0.0
54207.0,STARLINK-5262,PAYLOAD,2023-03-24 12:29:46,15.08884276,0.0001342,53.2189,167.2778,121.8042,238.3081,0.00035297,5.341e-05,0.0,0 STARLINK-5262,1 54207U 22141BC  23083.52067681  .00005341  00000-0  35297-3 0  9991,2 54207  53.2189 167.2778 0001342 121.8042 238.3081 15.08884276 23014,6917.745,95.435,540.538,538.682,0.0
